LANDSAT 9               
1 49260U 21088A   23360.78089040  .00000772  00000+0  18131-3 0  9992
2 49260  98.2101  68.1582 0001128  90.7890 269.3438 14.57117210119431
